INTELSAT 902 (IS-902)   
1 26900U 01039A   26190.32197634 -.00000275  00000+0  00000+0 0  9996
2 26900   6.1715  71.5125 0004423  33.4879 248.0640  1.00271871 90917
INTELSAT 904 (IS-904)   
1 27380U 02007A   26190.31581193 -.00000218  00000+0  00000+0 0  9998
2 27380   6.9721  68.9153 0005515  22.0874 278.4753  1.00272289 51988
DIRECTV 5 (TEMPO 1)     
1 27426U 02023A   26190.65140912 -.00000049  00000+0  00000+0 0  9996
2 27426   4.9320  75.0292 0003060  38.0617 298.8951  1.00271015 88342
INTELSAT 905 (IS-905)   
1 27438U 02027A   26190.75554020  .00000100  00000+0  00000+0 0  9990
2 27438   6.8070  69.5248 0003614  44.7572 308.2054  1.00272621 51586
GALAXY 3C (G-3C)        
1 27445U 02030A   26190.55004896 -.00000143  00000+0  00000+0 0  9999
2 27445   3.7881  77.6857 0001578  37.8218 275.1722  1.00271205 46713
INTELSAT 906 (IS-906)   
1 27513U 02041A   26190.79537830  .00000020  00000+0  00000+0 0  9995
2 27513   5.8582  72.6433 0003980  18.1602 187.3891  1.00272046 87252
GALAXY 13 (HORIZONS-1)  
1 27954U 03044A   26190.75302684  .00000144  00000+0  00000+0 0  9998
2 27954   1.4761  83.5771 0002163  20.5902 304.6155  1.00268932 46790
INTELSAT 10-02          
1 28358U 04022A   26190.78248213  .00000001  00000+0  00000+0 0  9996
2 28358   0.0500 258.4147 0000519 332.1315 337.8615  1.00271793 80783
DIRECTV 8               
1 28659U 05019A   26190.54528227  .00000014  00000+0  00000+0 0  9991
2 28659   0.0120  68.4861 0003041  53.6862 242.5607  1.00270333 77296
GALAXY 28 (G-28)        
1 28702U 05022A   26190.77738029 -.00000191  00000+0  00000+0 0  9999
2 28702   3.3535  78.6539 0002123  33.5845  68.2295  1.00270313 52202
GALAXY 16 (G-16)        
1 29236U 06023A   26190.65986721 -.00000114  00000+0  00000+0 0  9990
2 29236   0.0329 121.6880 0002486 353.8825 310.5749  1.00271602 73196
DIRECTV 9S              
1 29494U 06043A   26190.54883561 -.00000103  00000+0  00000+0 0  9992
2 29494   2.4753  80.6337 0005055  31.1120 272.1202  1.00270965 51609
GALAXY 17 (G-17)        
1 31307U 07016B   26190.76585358 -.00000197  00000+0  00000+0 0  9999
2 31307   3.0256  79.6152 0003609  30.1652   8.6040  1.00271321 70032
INTELSAT 11 (IS-11)     
1 32253U 07044B   26190.78785549 -.00000015  00000+0  00000+0 0  9996
2 32253   3.6211  78.3957 0003959  98.5120  60.7918  0.99050314 68679
HORIZONS-2              
1 32388U 07063B   26190.76810691 -.00000243  00000+0  00000+0 0  9994
2 32388   2.6572  80.3490 0003636  16.5114  33.5680  1.00271114 68048
DIRECTV 11              
1 32729U 08013A   26190.65952528 -.00000113  00000+0  00000+0 0  9999
2 32729   0.0371 212.2708 0000063 214.6798 358.8841  1.00269383 45811
GALAXY 18 (G-18)        
1 32951U 08024A   26190.75831353  .00000000  00000+0  00000+0 0  9995
2 32951   0.0222  29.3999 0002750  91.6983 316.5911  1.00269970 46076
GALAXY 19 (G-19)        
1 33376U 08045A   26190.66151067 -.00000126  00000+0  00000+0 0  9997
2 33376   0.0549 251.6244 0002377 224.1277 312.9741  1.00272554 65127
FM-5                    
1 35493U 09034A   26190.55178229 -.00000187  00000+0  00000+0 0  9992
2 35493   0.0356 273.9257 0000280  55.1794  70.8597  1.00271148 46860
INTELSAT 14 (IS-14)     
1 36097U 09064A   26190.48861354 -.00000261  00000+0  00000+0 0  9999
2 36097   0.0180  17.8839 0002154  92.7629 307.6886  1.00268814 60823
INTELSAT 15 (IS-15)     
1 36106U 09067A   26190.79962500 -.00000173  00000+0  00000+0 0  9994
2 36106   0.0141  43.1894 0002152  72.1914 185.3683  1.00271732 41458
DIRECTV 12              
1 36131U 09075A   26190.65679866 -.00000090  00000+0  00000+0 0  9994
2 36131   0.0308 174.1849 0000191  57.6561 189.4642  1.00268784 46776
INTELSAT 16 (IS-16)     
1 36397U 10006A   26190.76750024 -.00000232  00000+0  00000+0 0  9990
2 36397   0.0107 357.9428 0002276 132.7631 357.0931  1.00271814 59888
XM-5                    
1 37185U 10053A   26190.54606227 -.00000011  00000+0  00000+0 0  9994
2 37185   0.0626 268.1950 0002008 304.8583 155.8161  1.00279031 57701
INTELSAT 17 (IS-17)     
1 37238U 10065B   26190.79581163  .00000011  00000+0  00000+0 0  9993
2 37238   0.0143  86.3947 0002656  25.3168 168.4992  1.00271685 53472
INTELSAT 28 (IS-28)     
1 37392U 11016A   26190.77642696 -.00000214  00000+0  00000+0 0  9994
2 37392   1.8615  82.3419 0003719  36.2342  56.9206  1.00272476 53515
INTELSAT 18 (IS-18)     
1 37834U 11056A   26190.74704682  .00000065  00000+0  00000+0 0  9993
2 37834   0.0318 274.4085 0001491 211.4901 250.7095  1.00269336 54032
INTELSAT 22 (IS-22)     
1 38098U 12011A   26190.76572230  .00000000  00000+0  00000+0 0  9991
2 38098   0.0336  63.6144 0001882  67.4010 144.4268  1.00271065  7416
INTELSAT 19 (IS-19)     
1 38356U 12030A   26190.74427346 -.00000044  00000+0  00000+0 0  9993
2 38356   0.0162  25.1612 0003122  95.8888 240.5671  1.00271574 50677
INTELSAT 20 (IS-20)     
1 38740U 12043A   26190.58243183 -.00000012  00000+0  00000+0 0  9996
2 38740   0.0110   8.3377 0002081 357.1790 200.1558  1.00272708 50976
INTELSAT 21 (IS-21)     
1 38749U 12045A   26190.77122692  .00000000  00000+0  00000+0 0  9995
2 38749   0.0255  30.2344 0001718 102.7819  14.3242  1.00270362 50750
